$$SOE
2459580.500000000, A.D. 2022-Jan-01 00:00:00.0000, -2.845909048743799E+08, 2.790712911509725E+08, -4.034748256564511E+07,
2459587.500000000, A.D. 2022-Jan-08 00:00:00.0000, -2.919635226276048E+08, 2.720265859661592E+08, -3.987634360076025E+07,
2459594.500000000, A.D. 2022-Jan-15 00:00:00.0000, -2.991164536672183E+08, 2.647771451167917E+08, -3.937519069770627E+07,
2459601.500000000, A.D. 2022-Jan-22 00:00:00.0000, -3.060449315753403E+08, 2.573289738577746E+08, -3.884448320724420E+07,
2459608.500000000, A.D. 2022-Jan-29 00:00:00.0000, -3.127443115991217E+08, 2.496881350241551E+08, -3.828469083332773E+07,
2459615.500000000, A.D. 2022-Feb-05 00:00:00.0000, -3.192100704736653E+08, 2.418607486668489E+08, -3.769629343145680E+07,
2459622.500000000, A.D. 2022-Feb-12 00:00:00.0000, -3.254378042537570E+08, 2.338529908072419E+08, -3.707978111699302E+07,
2459629.500000000, A.D. 2022-Feb-19 00:00:00.0000, -3.314232254822679E+08, 2.256710936620943E+08, -3.643565436606141E+07,
2459636.500000000, A.D. 2022-Feb-26 00:00:00.0000, -3.371621610154901E+08, 2.173213466047689E+08, -3.576442404818035E+07,
2459643.500000000, A.D. 2022-Mar-05 00:00:00.0000, -3.426505503536866E+08, 2.088100972386432E+08, -3.506661145639621E+07,
2459650.500000000, A.D. 2022-Mar-12 00:00:00.0000, -3.478844442611778E+08, 2.001437525105604E+08, -3.434274836115521E+07,
2459657.500000000, A.D. 2022-Mar-19 00:00:00.0000, -3.528600036102204E+08, 1.913287798864405E+08, -3.359337709242398E+07,
2459664.500000000, A.D. 2022-Mar-26 00:00:00.0000, -3.575734984308394E+08, 1.823717085772839E+08, -3.281905065256705E+07,
2459671.500000000, A.D. 2022-Apr-02 00:00:00.0000, -3.620213071028242E+08, 1.732791307536413E+08, -3.202033287043386E+07,
2459678.500000000, A.D. 2022-Apr-09 00:00:00.0000, -3.661999154214980E+08, 1.640577027468692E+08, -3.119779862064438E+07,
2459685.500000000, A.D. 2022-Apr-16 00:00:00.0000, -3.701059151836628E+08, 1.547141468840458E+08, -3.035203408664271E+07,
2459692.500000000, A.D. 2022-Apr-23 00:00:00.0000, -3.737360035671589E+08, 1.452552550328243E+08, -2.948363686187307E+07,
2459699.500000000, A.D. 2022-Apr-30 00:00:00.0000, -3.770869851814387E+08, 1.356878916038405E+08, -2.859321590091441E+07,
2459706.500000000, A.D. 2022-May-07 00:00:00.0000, -3.801557737325190E+08, 1.260189940321168E+08, -2.768139176241376E+07,
2459713.500000000, A.D. 2022-May-14 00:00:00.0000, -3.829393919147478E+08, 1.162555737679254E+08, -2.674879702140398E+07,
2459720.500000000, A.D. 2022-May-21 00:00:00.0000, -3.854349715657334E+08, 1.064047185249806E+08, -2.579607660170512E+07,
2459727.500000000, A.D. 2022-May-28 00:00:00.0000, -3.876397545728191E+08, 9.647359481874296E+07, -2.482388806285134E+07,
2459734.500000000, A.D. 2022-Jun-04 00:00:00.0000, -3.895510942625209E+08, 8.646945047509570E+07, -2.383290189219976E+07,
2459741.500000000, A.D. 2022-Jun-11 00:00:00.0000, -3.911664571356573E+08, 7.639961710363987E+07, -2.282380181454539E+07,
2459748.500000000, A.D. 2022-Jun-18 00:00:00.0000, -3.924834249172723E+08, 6.627151253994308E+07, -2.179728512087331E+07,
2459755.500000000, A.D. 2022-Jun-25 00:00:00.0000, -3.934996969004440E+08, 5.609264321406601E+07, -2.075406302083855E+07,
2459762.500000000, A.D. 2022-Jul-02 00:00:00.0000, -3.942130924589921E+08, 4.587060636966264E+07, -1.969486103577954E+07,
2459769.500000000, A.D. 2022-Jul-09 00:00:00.0000, -3.946215533480963E+08, 3.561309230002393E+07, -1.862041945262732E+07,
2459776.500000000, A.D. 2022-Jul-16 00:00:00.0000, -3.947231458572546E+08, 2.532788767218120E+07, -1.753149374405496E+07,
2459783.500000000, A.D. 2022-Jul-23 00:00:00.0000, -3.945160650243399E+08, 1.502288000332094E+07, -1.642885474583476E+07,
2459790.500000000, A.D. 2022-Jul-30 00:00:00.0000, -3.939986408402147E+08, 4.706059921575149E+06, -1.531328887245024E+07,
2459797.500000000, A.D. 2022-Aug-06 00:00:00.0000, -3.931693428581209E+08, -5.614478153191752E+06, -1.418559864684056E+07,
2459804.500000000, A.D. 2022-Aug-13 00:00:00.0000, -3.920267840392582E+08, -1.593053416850622E+07, -1.304660324151447E+07,
2459811.500000000, A.D. 2022-Aug-20 00:00:00.0000, -3.905697254132455E+08, -2.623379996077288E+07, -1.189713892638866E+07,
2459818.500000000, A.D. 2022-Aug-27 00:00:00.0000, -3.887970814990657E+08, -3.651585688606620E+07, -1.073805948769172E+07,
2459825.500000000, A.D. 2022-Sep-03 00:00:00.0000, -3.867079262529384E+08, -4.676817369081959E+07, -9.570236648165304E+06,
2459832.500000000, A.D. 2022-Sep-10 00:00:00.0000, -3.843014994661729E+08, -5.698210461996023E+07, -8.394560492913291E+06,
2459839.500000000, A.D. 2022-Sep-17 00:00:00.0000, -3.815772135964265E+08, -6.714888778806299E+07, -7.211939901627988E+06,
2459846.500000000, A.D. 2022-Sep-24 00:00:00.0000, -3.785346609851971E+08, -7.725964389032666E+07, -6.023302994691264E+06,
2459853.500000000, A.D. 2022-Oct-01 00:00:00.0000, -3.751736212349954E+08, -8.730537530304016E+07, -4.829597614589956E+06,
2459860.500000000, A.D. 2022-Oct-08 00:00:00.0000, -3.714940683512014E+08, -9.727696507970135E+07, -3.631791834561996E+06,
2459867.500000000, A.D. 2022-Oct-15 00:00:00.0000, -3.674961785895776E+08, -1.071651746730971E+08, -2.430874307757422E+06,
2459874.500000000, A.D. 2022-Oct-22 00:00:00.0000, -3.631803411970102E+08, -1.169606421005348E+08, -1.227854390956692E+06,
2459881.500000000, A.D. 2022-Oct-29 00:00:00.0000, -3.585471695538509E+08, -1.266538831845191E+08, -2.376248045893013E+04,
2459888.500000000, A.D. 2022-Nov-05 00:00:00.0000, -3.535975106248917E+08, -1.362352931703487E+08, 1.180349475013532E+06,
2459895.500000000, A.D. 2022-Nov-12 00:00:00.0000, -3.483324546888917E+08, -1.456951474995033E+08, 2.383407572133437E+06,
2459902.500000000, A.D. 2022-Nov-19 00:00:00.0000, -3.427533460720675E+08, -1.550236027431799E+08, 3.584315653526679E+06,
2459909.500000000, A.D. 2022-Nov-26 00:00:00.0000, -3.368617946306878E+08, -1.642106981458815E+08, 4.781955059040293E+06,
2459916.500000000, A.D. 2022-Dec-03 00:00:00.0000, -3.306596878216012E+08, -1.732463578437670E+08, 5.975184417079337E+06,
2459923.500000000, A.D. 2022-Dec-10 00:00:00.0000, -3.241492033141001E+08, -1.821203937941639E+08, 7.162839479852460E+06,
2459930.500000000, A.D. 2022-Dec-17 00:00:00.0000, -3.173328221113910E+08, -1.908225095003344E+08, 8.343733005285352E+06,
2459937.500000000, A.D. 2022-Dec-24 00:00:00.0000, -3.102133420605742E+08, -1.993423046610847E+08, 9.516654677686229E+06,
2459944.500000000, A.D. 2022-Dec-31 00:00:00.0000, -3.027938913774614E+08, -2.076692807056336E+08, 1.068037105112056E+07,
2459951.500000000, A.D. 2023-Jan-07 00:00:00.0000, -2.950779420423225E+08, -2.157928463226747E+08, 1.183362559138815E+07,
2459958.500000000, A.D. 2023-Jan-14 00:00:00.0000, -2.870693250057340E+08, -2.237023225614687E+08, 1.297513904657048E+07,
2459965.500000000, A.D. 2023-Jan-21 00:00:00.0000, -2.787722478153309E+08, -2.313869507573029E+08, 1.410360995535719E+07,
2459972.500000000, A.D. 2023-Jan-28 00:00:00.0000, -2.701913109573706E+08, -2.388359035611742E+08, 1.521771495091918E+07,
2459979.500000000, A.D. 2023-Feb-04 00:00:00.0000, -2.613315230761327E+08, -2.460382961307593E+08, 1.631610913810375E+07,
2459986.500000000, A.D. 2023-Feb-11 00:00:00.0000, -2.521983168093045E+08, -2.529831977606215E+08, 1.739742670456417E+07,
2459993.500000000, A.D. 2023-Feb-18 00:00:00.0000, -2.427975652333905E+08, -2.596596448609471E+08, 1.846028171623202E+07,
2460000.500000000, A.D. 2023-Feb-25 00:00:00.0000, -2.331355985762398E+08, -2.660566555360535E+08, 1.950326907191552E+07,
2460007.500000000, A.D. 2023-Mar-04 00:00:00.0000, -2.232192210047043E+08, -2.721632458352326E+08, 2.052496562199712E+07,
2460014.500000000, A.D. 2023-Mar-11 00:00:00.0000, -2.130557273578323E+08, -2.779684477653784E+08, 2.152393146225901E+07,
2460021.500000000, A.D. 2023-Mar-18 00:00:00.0000, -2.026529196636606E+08, -2.834613292016226E+08, 2.249871140848646E+07,
2460028.500000000, A.D. 2023-Mar-25 00:00:00.0000, -1.920191231062467E+08, -2.886310158262401E+08, 2.344783664345585E+07,
2460035.500000000, A.D. 2023-Apr-01 00:00:00.0000, -1.811632008729651E+08, -2.934667147806295E+08, 2.436982654362321E+07,
2460042.500000000, A.D. 2023-Apr-08 00:00:00.0000, -1.700945683358693E+08, -2.979577388762572E+08, 2.526319085594377E+07,
2460049.500000000, A.D. 2023-Apr-15 00:00:00.0000, -1.588232087248751E+08, -3.020935325322087E+08, 2.612643236199494E+07,
2460056.500000000, A.D. 2023-Apr-22 00:00:00.0000, -1.473596882873063E+08, -3.058637025443280E+08, 2.695804962666418E+07,
2460063.500000000, A.D. 2023-Apr-29 00:00:00.0000, -1.357151679880880E+08, -3.092580514756500E+08, 2.775653977714060E+07,
2460070.500000000, A.D. 2023-May-06 00:00:00.0000, -1.239014132846703E+08, -3.122666119121246E+08, 2.852040163100754E+07,
2460077.500000000, A.D. 2023-May-13 00:00:00.0000, -1.119308027107373E+08, -3.148796824812275E+08, 2.924813920022401E+07,
2460084.500000000, A.D. 2023-May-20 00:00:00.0000, -9.981633477622078E+07, -3.170878661050994E+08, 2.993826551741223E+07,
2460091.500000000, A.D. 2023-May-27 00:00:00.0000, -8.757163271688741E+07, -3.188821104720174E+08, 3.058930676948696E+07,
2460098.500000000, A.D. 2023-Jun-03 00:00:00.0000, -7.521094674962820E+07, -3.202537506268786E+08, 3.119980673771293E+07,
2460105.500000000, A.D. 2023-Jun-10 00:00:00.0000, -6.274915351411698E+07, -3.211945535903986E+08, 3.176833154033063E+07,
2460112.500000000, A.D. 2023-Jun-17 00:00:00.0000, -5.020175230974212E+07, -3.216967649273444E+08, 3.229347466074008E+07,
2460119.500000000, A.D. 2023-Jun-24 00:00:00.0000, -3.758485750132193E+07, -3.217531570295578E+08, 3.277386222846277E+07,
2460126.500000000, A.D. 2023-Jul-01 00:00:00.0000, -2.491518653443396E+07, -3.213570780670204E+08, 3.320815858535540E+07,
2460133.500000000, A.D. 2023-Jul-08 00:00:00.0000, -1.221004493626064E+07, -3.205025005221298E+08, 3.359507234132652E+07,
2460140.500000000, A.D. 2023-Jul-15 00:00:00.0000, 5.126907061197376E+05, -3.191840718242452E+08, 3.393336278275441E+07,
$$EOE